KORONAS-FOTON           
1 33504U 09003A   17345.78152644  .00000115  00000-0  43999-5 0  9990
2 33504  82.4438  56.4878 0018591 212.2173 147.7924 15.15034063488266
